ORBCOMM FM24            
1 25478U 98053D   25012.87119034  .00001773  00000+0  63545-3 0  9997
2 25478  45.0079 285.1472 0000780 139.0472 221.0435 14.37363157375094
ORBCOMM FM25            
1 25479U 98053E   25012.90968847  .00001657  00000+0  59696-3 0  9999
2 25479  45.0070 283.2203 0003015 183.2924 176.7905 14.37352254375391
ORBCOMM FM26            
1 25480U 98053F   25012.89408811  .00001359  00000+0  50653-3 0  9992
2 25480  45.0070 278.6914 0004947 209.2437 150.8134 14.36520759375318
ORBCOMM FM27            
1 25481U 98053G   25012.89925202  .00001652  00000+0  59539-3 0  9999
2 25481  45.0053 283.5154 0000872  12.8548 347.2322 14.37355217375323
ORBCOMM FM28            
1 25482U 98053H   25012.89202942  .00001275  00000+0  46762-3 0  9994
2 25482  45.0041 221.3197 0003835 228.0640 131.9882 14.37621630376004
ORBCOMM FM30            
1 25980U 99065A   25012.69256310  .00001611  00000+0  58967-3 0  9991
2 25980  45.0311 105.4039 0007208 293.0622  66.9466 14.36668130312082
ORBCOMM FM31            
1 25981U 99065B   25012.73055090  .00001532  00000+0  56335-3 0  9998
2 25981  45.0226  98.7714 0004112 303.9478  56.0979 14.36639722311648
ORBCOMM FM32            
1 25982U 99065C   25012.53384510  .00001716  00000+0  63755-3 0  9997
2 25982  45.0147 115.2262 0005666 311.5108  48.5253 14.35670545312227
